ONEWEB-0346             
1 49212U 21083AC  24105.17515833  .00000023  00000+0  24592-4 0  9997
2 49212  87.9139 133.5316 0002365  85.3980 274.7422 13.18687329126621
ONEWEB-0348             
1 49213U 21083AD  24105.86477900  .00001098  00000+0  26678-2 0  9994
2 49213  87.9170  72.3001 0002588  87.1360 273.0070 13.20777346133392
ONEWEB-0350             
1 49214U 21083AE  24104.58755600 -.00000053  00000+0 -17981-3 0  9999
2 49214  87.8896 118.3972 0002362  94.4996 265.6403 13.13470076127922
ONEWEB-0351             
1 49215U 21083AF  24105.40379130  .00000068  00000+0  13546-3 0  9999
2 49215  87.9164  72.3934 0001103 104.6585 255.4670 13.20771578133300
ONEWEB-0352             
1 49216U 21083AG  24105.10175289  .00000350  00000+0  92283-3 0  9995
2 49216  87.8898 118.3241 0001792  98.9538 261.1793 13.13471173128082
ONEWEB-0354             
1 49217U 21083AH  24105.42918222  .00000024  00000+0  28209-4 0  9999
2 49217  87.9171  72.3705 0002257  91.9479 268.1913 13.20769892133348
ONEWEB-0355             
1 49218U 21083AJ  24105.58896171 -.00000165  00000+0 -48781-3 0  9999
2 49218  87.8898 118.2259 0002014  95.9776 264.1583 13.13467760128022
ONEWEB-0357             
1 49219U 21083AK  24105.88054638  .00000087  00000+0  18219-3 0  9991
2 49219  87.9169  72.3009 0001959  91.3170 268.8188 13.20772258133390
